{
    "links": {
        "self": "http://www.neowsapp.com/rest/v1/neo/3388887?api_key=iIulBulltgU6a56xZRHN4H3l9WmuAYTsLGpBGhQ2"
    },
    "id": "3388887",
    "neo_reference_id": "3388887",
    "name": "(2007 US)",
    "designation": "2007 US",
    "nasa_jpl_url": "http://ssd.jpl.nasa.gov/sbdb.cgi?sstr=3388887",
    "absolute_magnitude_h": 22.7,
    "estimated_diameter": {
        "kilometers": {
            "estimated_diameter_min": 0.0766575574,
            "estimated_diameter_max": 0.1714115092
        },
        "meters": {
            "estimated_diameter_min": 76.6575573531,
            "estimated_diameter_max": 171.4115092306
        },
        "miles": {
            "estimated_diameter_min": 0.0476327831,
            "estimated_diameter_max": 0.1065101409
        },
        "feet": {
            "estimated_diameter_min": 251.5011804664,
            "estimated_diameter_max": 562.3737359442
        }
    },
    "is_potentially_hazardous_asteroid": false,
    "close_approach_data": [
        {
            "close_approach_date": "2006-09-30",
            "close_approach_date_full": "2006-Sep-30 04:35",
            "epoch_date_close_approach": 1159590900000,
            "relative_velocity": {
                "kilometers_per_second": "26.7257419082",
                "kilometers_per_hour": "96212.6708695006",
                "miles_per_hour": "59782.8120744405"
            },
            "miss_distance": {
                "astronomical": "0.2809340793",
                "lunar": "109.2833568477",
                "kilometers": "42027139.873691091",
                "miles": "26114453.7741994158"
            },
            "orbiting_body": "Earth"
        },
        {
            "close_approach_date": "2007-08-21",
            "close_approach_date_full": "2007-Aug-21 10:02",
            "epoch_date_close_approach": 1187690520000,
            "relative_velocity": {
                "kilometers_per_second": "20.3001232477",
                "kilometers_per_hour": "73080.4436916826",
                "miles_per_hour": "45409.3456927569"
            },
            "miss_distance": {
                "astronomical": "0.0891143622",
                "lunar": "34.6654868958",
                "kilometers": "13331318.771528514",
                "miles": "8283697.3644769332"
            },
            "orbiting_body": "Venus"
        },
        {
            "close_approach_date": "2007-09-20",
            "close_approach_date_full": "2007-Sep-20 13:46",
            "epoch_date_close_approach": 1190295960000,
            "relative_velocity": {
                "kilometers_per_second": "16.3788257385",
                "kilometers_per_hour": "58963.7726584614",
                "miles_per_hour": "36637.7952943645"
            },
            "miss_distance": {
                "astronomical": "0.1302464037",
                "lunar": "50.6658510393",
                "kilometers": "19484584.568680119",
                "miles": "12107159.4345348822"
            },
            "orbiting_body": "Earth"
        },
        {
            "close_approach_date": "2122-01-01",
            "close_approach_date_full": "2122-Jan-01 00:18",
            "epoch_date_close_approach": 4796669880000,
            "relative_velocity": {
                "kilometers_per_second": "19.707863165",
                "kilometers_per_hour": "70948.3073940788",
                "miles_per_hour": "44084.5191138375"
            },
            "miss_distance": {
                "astronomical": "0.207809819",
                "lunar": "80.838019591",
                "kilometers": "31087906.28748553",
                "miles": "19317129.219859114"
            },
            "orbiting_body": "Earth"
        }
    ],
    "orbital_data": {
        "orbit_id": "7",
        "orbit_determination_date": "2017-04-06 09:05:36",
        "first_observation_date": "2007-10-16",
        "last_observation_date": "2007-10-19",
        "data_arc_in_days": 3,
        "observations_used": 14,
        "orbit_uncertainty": "9",
        "minimum_orbit_intersection": ".0978964",
        "jupiter_tisserand_invariant": "6.111",
        "epoch_osculation": "2454390.5",
        "eccentricity": ".5777390310618566",
        "semi_major_axis": ".9590281684319306",
        "inclination": "12.18890087225035",
        "ascending_node_longitude": "24.26412187417214",
        "orbital_period": "343.040559455095",
        "perihelion_distance": ".40496016364104",
        "perihelion_argument": "202.8207628425794",
        "aphelion_distance": "1.513096173222821",
        "perihelion_time": "2454298.810578239672",
        "mean_anomaly": "96.22241721547493",
        "mean_motion": "1.049438587005118",
        "equinox": "J2000",
        "orbit_class": {
            "orbit_class_type": "ATE",
            "orbit_class_description": "Near-Earth asteroid orbits similar to that of 2062 Aten",
            "orbit_class_range": "a (semi-major axis) < 1.0 AU; q (perihelion) > 0.983 AU"
        }
    },
    "is_sentry_object": false
}